NORAD_CAT_ID,OBJECT_NAME,OBJECT_TYPE,EPOCH,MEAN_MOTION,ECCENTRICITY,INCLINATION,RA_OF_ASC_NODE,ARG_OF_PERICENTER,MEAN_ANOMALY,BSTAR,MEAN_MOTION_DOT,MEAN_MOTION_DDOT,TLE_LINE0,TLE_LINE1,TLE_LINE2,SEMIMAJOR_AXIS,PERIOD,APOGEE,PERIGEE,DECAYED
52695.0,STARLINK-4041,PAYLOAD,2023-10-14 00:12:46,15.08854453,0.000131,53.2155,128.982,90.7198,269.3944,0.00025921,3.841e-05,0.0,0 STARLINK-4041,1 52695U 22053AR  23287.00886817  .00003841  00000-0  25921-3 0  9997,2 52695  53.2155 128.9820 0001310  90.7198 269.3944 15.08854453 78183,6917.836,95.437,540.607,538.795,0.0
52695.0,STARLINK-4041,PAYLOAD,2023-10-14 06:34:19,15.08841763,0.0001647,53.2159,127.7896,83.4489,276.6691,5.9472e-05,6.59e-06,0.0,0 STARLINK-4041,1 52695U 22053AR  23287.27383395  .00000659  00000-0  59472-4 0  9992,2 52695  53.2159 127.7896 0001647  83.4489 276.6691 15.08841763 78227,6917.875,95.437,540.879,538.601,0.0
52695.0,STARLINK-4041,PAYLOAD,2023-10-14 20:52:47,15.08844105,0.0001549,53.2173,125.113,87.4166,272.7004,-6.2822e-05,-1.288e-05,0.0,0 STARLINK-4041,1 52695U 22053AR  23287.86999309 -.00001288  00000-0 -62822-4 0  9999,2 52695  53.2173 125.1130 0001549  87.4166 272.7004 15.08844105 78726,6917.868,95.437,540.804,538.661,0.0
52695.0,STARLINK-4041,PAYLOAD,2023-10-15 12:46:39,15.08836555,0.0001402,53.217,122.1426,87.7505,272.3647,5.0663e-05,5.18e-06,0.0,0 STARLINK-4041,1 52695U 22053AR  23288.53239791  .00000518  00000-0  50663-4 0  9999,2 52695  53.2170 122.1426 0001402  87.7505 272.3647 15.08836555 78826,6917.891,95.438,540.726,538.786,0.0
52695.0,STARLINK-4041,PAYLOAD,2023-10-15 19:08:11,15.08839703,0.0001389,53.2152,120.9532,87.8656,272.2495,7.2865e-05,8.72e-06,0.0,0 STARLINK-4041,1 52695U 22053AR  23288.79735673  .00000872  00000-0  72865-4 0  9998,2 52695  53.2152 120.9532 0001389  87.8656 272.2495 15.08839703 78459,6917.881,95.438,540.707,538.785,0.0
52695.0,STARLINK-4041,PAYLOAD,2023-10-15 20:43:34,15.08843423,0.000132,53.2153,120.6555,94.4804,265.6339,5.1694e-05,5.35e-06,0.0,0 STARLINK-4041,1 52695U 22053AR  23288.86359440  .00000535  00000-0  51694-4 0  9993,2 52695  53.2153 120.6555 0001320  94.4804 265.6339 15.08843423 78879,6917.87,95.437,540.648,538.822,0.0
52695.0,STARLINK-4041,PAYLOAD,2023-10-16 12:37:26,15.0883659,0.0001466,53.2151,117.6807,94.7137,265.4023,0.00010258,1.345e-05,0.0,0 STARLINK-4041,1 52695U 22053AR  23289.52600046  .00001345  00000-0  10258-3 0  9998,2 52695  53.2151 117.6807 0001466  94.7137 265.4023 15.08836590 78972,6917.891,95.438,540.77,538.742,0.0
52695.0,STARLINK-4041,PAYLOAD,2023-10-16 17:23:35,15.08839378,0.0001248,53.2163,116.789,88.246,271.8675,0.00013941,1.931e-05,0.0,0 STARLINK-4041,1 52695U 22053AR  23289.72471864  .00001931  00000-0  13941-3 0  9997,2 52695  53.2163 116.7890 0001248  88.2460 271.8675 15.08839378 79008,6917.882,95.438,540.611,538.884,0.0
52695.0,STARLINK-4041,PAYLOAD,2023-10-17 06:06:40,15.08845682,0.0001426,53.2173,114.4105,83.293,276.8224,8.7165e-05,1.1e-05,0.0,0 STARLINK-4041,1 52695U 22053AR  23290.25463627  .00001100  00000-0  87165-4 0  9993,2 52695  53.2173 114.4105 0001426  83.2930 276.8224 15.08845682 78670,6917.863,95.437,540.715,538.742,0.0
52695.0,STARLINK-4041,PAYLOAD,2023-10-17 18:49:45,15.08843912,0.0001301,53.2165,112.0315,87.8197,272.2944,0.00014906,2.085e-05,0.0,0 STARLINK-4041,1 52695U 22053AR  23290.78455632  .00002085  00000-0  14906-3 0  9993,2 52695  53.2165 112.0315 0001301  87.8197 272.2944 15.08843912 79163,6917.868,95.437,540.633,538.833,0.0
52695.0,STARLINK-4041,PAYLOAD,2023-10-18 12:19:00,15.08840893,0.0001648,53.2179,108.762,92.3467,267.7714,0.00011404,1.527e-05,0.0,0 STARLINK-4041,1 52695U 22053AR  23291.51319909  .00001527  00000-0  11404-3 0  9991,2 52695  53.2179 108.7620 0001648  92.3467 267.7714 15.08840893 78869,6917.878,95.437,540.883,538.603,0.0
52695.0,STARLINK-4041,PAYLOAD,2023-10-18 21:51:18,15.08847582,0.0001185,53.2173,106.9747,88.9782,271.1345,0.00010904,1.448e-05,0.0,0 STARLINK-4041,1 52695U 22053AR  23291.91063402  .00001448  00000-0  10904-3 0  9995,2 52695  53.2173 106.9747 0001185  88.9782 271.1345 15.08847582 79334,6917.857,95.437,540.542,538.902,0.0
52695.0,STARLINK-4041,PAYLOAD,2023-10-19 12:09:46,15.08848812,0.0001618,53.2156,104.3002,87.4645,272.6532,4.0446e-05,3.56e-06,0.0,0 STARLINK-4041,1 52695U 22053AR  23292.50679351  .00000356  00000-0  40446-4 0  9999,2 52695  53.2156 104.3002 0001618  87.4645 272.6532 15.08848812 79425,6917.853,95.437,540.838,538.599,0.0
52695.0,STARLINK-4041,PAYLOAD,2023-10-19 18:31:18,15.08856327,0.0001712,53.2157,103.1109,87.5068,272.612,7.8012e-05,9.54e-06,0.0,0 STARLINK-4041,1 52695U 22053AR  23292.77174632  .00000954  00000-0  78012-4 0  9994,2 52695  53.2157 103.1109 0001712  87.5068 272.6120 15.08856327 79058,6917.83,95.437,540.88,538.511,0.0
52695.0,STARLINK-4041,PAYLOAD,2023-10-20 04:03:38,15.08847889,0.0001829,53.2144,101.3274,93.8443,266.2759,0.00018524,2.662e-05,0.0,0 STARLINK-4041,1 52695U 22053AR  23293.16918997  .00002662  00000-0  18524-3 0  9997,2 52695  53.2144 101.3274 0001829  93.8443 266.2759 15.08847889 79110,6917.856,95.437,540.987,538.456,0.0
52695.0,STARLINK-4041,PAYLOAD,2023-10-20 13:35:57,15.08830037,0.0001811,53.216,99.5409,76.0278,284.0916,-0.00010657,-1.983e-05,0.0,0 STARLINK-4041,1 52695U 22053AR  23293.56664150 -.00001983  00000-0 -10657-3 0  9996,2 52695  53.2160  99.5409 0001811  76.0278 284.0916 15.08830037 79172,6917.911,95.438,541.029,538.523,0.0
52695.0,STARLINK-4041,PAYLOAD,2023-10-20 21:32:53,15.08832981,0.0002012,53.215,98.0548,77.7337,282.388,-3.7032e-05,-8.77e-06,0.0,0 STARLINK-4041,1 52695U 22053AR  23293.89784231 -.00000877  00000-0 -37032-4 0  9993,2 52695  53.2150  98.0548 0002012  77.7337 282.3880 15.08832981 79639,6917.902,95.438,541.159,538.375,0.0
52695.0,STARLINK-4041,PAYLOAD,2023-10-21 13:26:44,15.08844228,0.0002035,53.2148,95.0835,92.5676,267.5549,0.00011317,1.514e-05,0.0,0 STARLINK-4041,1 52695U 22053AR  23294.56023564  .00001514  00000-0  11317-3 0  9997,2 52695  53.2148  95.0835 0002035  92.5676 267.5549 15.08844228 79733,6917.867,95.437,541.14,538.325,0.0
52695.0,STARLINK-4041,PAYLOAD,2023-10-21 19:48:16,15.08850842,0.000209,53.2146,93.893,80.0897,280.0331,0.0003032,4.542e-05,0.0,0 STARLINK-4041,1 52695U 22053AR  23294.82519398  .00004542  00000-0  30320-3 0  9990,2 52695  53.2146  93.8930 0002090  80.0897 280.0331 15.08850842 79368,6917.847,95.437,541.158,538.266,0.0
52695.0,STARLINK-4041,PAYLOAD,2023-10-22 03:45:12,15.08837932,0.0001068,53.219,92.4047,88.0905,272.0209,2.2168e-05,6.5e-07,0.0,0 STARLINK-4041,1 52695U 22053AR  23295.15639441  .00000065  00000-0  22168-4 0  9997,2 52695  53.2190  92.4047 0001068  88.0905 272.0209 15.08837932 79419,6917.887,95.438,540.491,539.013,0.0
52695.0,STARLINK-4041,PAYLOAD,2023-10-22 13:17:32,15.08831032,0.0002292,53.2128,90.6241,86.5289,273.5965,1.5378e-05,-4.4e-07,0.0,0 STARLINK-4041,1 52695U 22053AR  23295.55384505 -.00000044  00000-0  15378-4 0  9992,2 52695  53.2128  90.6241 0002292  86.5289 273.5965 15.08831032 79885,6917.908,95.438,541.358,538.187,0.0
52695.0,STARLINK-4041,PAYLOAD,2023-10-22 18:03:41,15.08830456,0.0001501,53.2162,89.7303,86.4703,273.6461,1.3168e-05,-7.8e-07,0.0,0 STARLINK-4041,1 52695U 22053AR  23295.75256487 -.00000078  00000-0  13168-4 0  9993,2 52695  53.2162  89.7303 0001501  86.4703 273.6461 15.08830456 79503,6917.91,95.438,540.813,538.736,0.0
52695.0,STARLINK-4041,PAYLOAD,2023-10-23 03:36:00,15.08838279,0.0001535,53.2163,87.9461,86.4241,273.6927,6.4114e-05,7.32e-06,0.0,0 STARLINK-4041,1 52695U 22053AR  23296.15000258  .00000732  00000-0  64114-4 0  9994,2 52695  53.2163  87.9461 0001535  86.4241 273.6927 15.08838279 79567,6917.886,95.438,540.813,538.689,0.0
52695.0,STARLINK-4041,PAYLOAD,2023-10-24 09:48:20,15.0883991,0.0001468,53.2168,82.2948,91.7827,268.3334,0.00026769,3.975e-05,0.0,0 STARLINK-4041,1 52695U 22053AR  23297.40856506  .00003975  00000-0  26769-3 0  9993,2 52695  53.2168  82.2948 0001468  91.7827 268.3334 15.08839910 79751,6917.881,95.438,540.761,538.73,0.0
52695.0,STARLINK-4041,PAYLOAD,2023-10-25 14:25:16,15.08841196,0.0001467,53.2186,76.9433,89.6353,270.4807,7.1901e-05,8.57e-06,0.0,0 STARLINK-4041,1 52695U 22053AR  23298.60088494  .00000857  00000-0  71901-4 0  9994,2 52695  53.2186  76.9433 0001467  89.6353 270.4807 15.08841196 79937,6917.877,95.437,540.757,538.727,0.0
52695.0,STARLINK-4041,PAYLOAD,2023-10-26 14:16:03,15.08841246,0.0001512,53.2182,72.4807,100.8789,259.2373,0.00011787,1.588e-05,0.0,0 STARLINK-4041,1 52695U 22053AR  23299.59448300  .00001588  00000-0  11787-3 0  9996,2 52695  53.2182  72.4807 0001512 100.8789 259.2373 15.08841246 80491,6917.877,95.437,540.788,538.696,0.0
52695.0,STARLINK-4041,PAYLOAD,2023-10-26 15:51:26,15.08844615,0.0001399,53.2185,72.1824,96.7058,263.4094,0.00011026,1.468e-05,0.0,0 STARLINK-4041,1 52695U 22053AR  23299.66072090  .00001468  00000-0  11026-3 0  9996,2 52695  53.2185  72.1824 0001399  96.7058 263.4094 15.08844615 80091,6917.866,95.437,540.699,538.763,0.0
52695.0,STARLINK-4041,PAYLOAD,2023-10-27 09:20:40,15.08867833,0.000222,53.2192,68.9122,86.7646,273.36,-0.00028056,-4.754e-05,0.0,0 STARLINK-4041,1 52695U 22053AR  23300.38935609 -.00004754  00000-0 -28056-3 0  9996,2 52695  53.2192  68.9122 0002220  86.7646 273.3600 15.08867833 80202,6917.795,95.436,541.196,538.125,0.0
52695.0,STARLINK-4041,PAYLOAD,2023-10-27 15:42:12,15.08852299,0.0001559,53.2196,67.7268,93.0199,267.0972,0.00017015,2.422e-05,0.0,0 STARLINK-4041,1 52695U 22053AR  23300.65431411  .00002422  00000-0  17015-3 0  9999,2 52695  53.2196  67.7268 0001559  93.0199 267.0972 15.08852299 80653,6917.843,95.437,540.786,538.629,0.0
52695.0,STARLINK-4041,PAYLOAD,2023-10-28 01:14:31,15.08853138,8.59e-05,53.2183,65.9368,51.7103,308.3967,0.00020305,2.946e-05,0.0,0 STARLINK-4041,1 52695U 22053AR  23301.05175227  .00002946  00000-0  20305-3 0  9991,2 52695  53.2183  65.9368 0000859  51.7103 308.3967 15.08853138 80306,6917.84,95.437,540.299,539.111,0.0
